     2              NAVIGATION DATA                         RINEX VERSION / TYPE
CCRINEXN V1.6.0 UX  CDDIS               12-MAR-11 15:33     PGM / RUN BY / DATE 
IGS BROADCAST EPHEMERIS FILE                                COMMENT             
    0.2794D-07  0.0000D+00 -0.1192D-06  0.5960D-07          ION ALPHA           
    0.1331D+06 -0.1638D+05 -0.1966D+06 -0.6554D+05          ION BETA            
   -0.931322574616D-09-0.266453525910D-14   589824     1626 DELTA-UTC: A0,A1,T,W
    15                                                      LEAP SECONDS        
                                                            END OF HEADER       
 7 11  3 11 17 59 44.0 0.538351014256D-05 0.909494701773D-12 0.000000000000D+00
    0.100000000000D+02-0.563437500000D+02 0.411445709794D-08-0.449959556153D+00
   -0.309012830257D-05 0.419651845004D-02 0.688806176186D-05 0.515367286873D+04
    0.496784000000D+06 0.670552253723D-07-0.262483781594D+01-0.186264514923D-07
    0.974233852705D+00 0.253812500000D+03-0.310659129987D+01-0.798497546342D-08
   -0.171792870148D-09 0.100000000000D+01 0.162600000000D+04 0.000000000000D+00
    0.200000000000D+01 0.000000000000D+00-0.107102096081D-07 0.100000000000D+02
    0.489600000000D+06 0.000000000000D+00 0.000000000000D+00 0.000000000000D+00
12 11  3 11 17 59 44.0-0.201305374503D-04 0.284217094304D-11 0.000000000000D+00
    0.600000000000D+01-0.468750000000D+02 0.411588572888D-08-0.389192161313D+00
   -0.243447721005D-05 0.367956550326D-02 0.852905213833D-05 0.515379133606D+04
    0.496784000000D+06 0.745058059692D-07-0.157016641768D+01-0.465661287308D-07
    0.973958654407D+00 0.223718750000D+03-0.265941007385D+00-0.783782647693D-08
    0.276082928534D-09 0.100000000000D+01 0.162600000000D+04 0.000000000000D+00
    0.200000000000D+01 0.000000000000D+00-0.121071934700D-07 0.600000000000D+01
    0.493206000000D+06 0.400000000000D+01 0.000000000000D+00 0.000000000000D+00
21 11  3 11 17 59 44.0-0.129682943225D-03-0.261479726760D-11 0.000000000000D+00
    0.440000000000D+02 0.671875000000D+01 0.525236163909D-08-0.120827742794D+01
    0.445172190666D-06 0.174165136414D-01 0.811181962490D-05 0.515377722931D+04
    0.496784000000D+06 0.417232513428D-06 0.519048921408D+00 0.558793544769D-07
    0.932211026171D+00 0.202312500000D+03-0.239599105970D+01-0.823962892790D-08
   -0.156435087578D-09 0.100000000000D+01 0.162600000000D+04 0.000000000000D+00
    0.200000000000D+01 0.000000000000D+00-0.116415321827D-07 0.440000000000D+02
    0.489618000000D+06 0.400000000000D+01 0.000000000000D+00 0.000000000000D+00
26 11  3 11 17 59 44.0-0.142491422594D-03-0.100044417195D-10 0.000000000000D+00
    0.160000000000D+02 0.275625000000D+02 0.421338979031D-08 0.977941614188D+00
    0.147894024849D-05 0.203586120624D-01 0.447221100330D-05 0.515364431572D+04
    0.496784000000D+06-0.303611159325D-06 0.267821246545D+01 0.502914190292D-07
    0.988130436307D+00 0.313437500000D+03 0.112764734919D+01-0.837034865862D-08
   -0.239295681911D-09 0.100000000000D+01 0.162600000000D+04 0.000000000000D+00
    0.200000000000D+01 0.000000000000D+00-0.651925802231D-08 0.160000000000D+02
    0.495810000000D+06 0.400000000000D+01 0.000000000000D+00 0.000000000000D+00
27 11  3 11 17 59 44.0 0.244602560997D-03 0.363797880709D-11 0.000000000000D+00
    0.480000000000D+02-0.709687500000D+02 0.396195074544D-08 0.199235488059D+01
   -0.378116965294D-05 0.217477930710D-01 0.507384538650D-05 0.515370584869D+04
    0.496784000000D+06 0.357627868652D-06-0.267956566614D+01-0.130385160446D-07
    0.980803760745D+00 0.283375000000D+03-0.128083950763D+01-0.766317634491D-08
   -0.308941440080D-09 0.100000000000D+01 0.162600000000D+04 0.000000000000D+00
    0.200000000000D+01 0.000000000000D+00-0.419095158577D-08 0.480000000000D+02
    0.494808000000D+06 0.400000000000D+01 0.000000000000D+00 0.000000000000D+00
30 11  3 11 17 59 44.0 0.328341498971D-03 0.295585778076D-11 0.000000000000D+00
    0.200000000000D+01-0.350000000000D+02 0.434839542152D-08 0.219370269611D+01
   -0.188685953617D-05 0.125812677434D-01 0.790879130363D-05 0.515365348816D+04
    0.496784000000D+06 0.249594449997D-06-0.162808013333D+01-0.102445483208D-06
    0.959361849455D+00 0.226031250000D+03 0.151741606992D+01-0.778389530609D-08
    0.278583045521D-09 0.100000000000D+01 0.162600000000D+04 0.000000000000D+00
    0.200000000000D+01 0.000000000000D+00-0.791624188423D-08 0.200000000000D+01
    0.491748000000D+06 0.400000000000D+01 0.000000000000D+00 0.000000000000D+00
 1 11  3 11 18  0  0.0-0.214643310756D-03-0.284217094304D-11 0.000000000000D+00
    0.750000000000D+02-0.335625000000D+02 0.420910389750D-08 0.299248314548D+01
   -0.172667205334D-05 0.454496906605D-02 0.824965536594D-05 0.515357770920D+04
    0.496800000000D+06 0.670552253723D-07-0.158641858319D+01-0.558793544769D-08
    0.967830104363D+00 0.226406250000D+03 0.868958376359D+00-0.779175312922D-08
    0.323584907182D-09 0.100000000000D+01 0.162600000000D+04 0.000000000000D+00
    0.200000000000D+01 0.630000000000D+02-0.195577740669D-07 0.750000000000D+02
    0.489618000000D+06 0.400000000000D+01 0.000000000000D+00 0.000000000000D+00
 2 11  3 11 18  0  0.0 0.324646476656D-03 0.193267624127D-11 0.000000000000D+00
    0.880000000000D+02 0.103750000000D+02 0.512842790532D-08 0.123037583688D+01
    0.519677996635D-06 0.100919009419D-01 0.868923962116D-05 0.515372189903D+04
    0.496800000000D+06 0.298023223877D-07 0.492708911692D+00 0.141561031342D-06
    0.939518521415D+00 0.200218750000D+03-0.305970682352D+01-0.820855620503D-08
   -0.355371945525D-09 0.100000000000D+01 0.162600000000D+04 0.000000000000D+00
    0.200000000000D+01 0.000000000000D+00-0.172294676304D-07 0.880000000000D+02
    0.492000000000D+06 0.000000000000D+00 0.000000000000D+00 0.000000000000D+00
 3 11  3 11 18  0  0.0 0.687045045197D-03 0.511590769747D-11 0.000000000000D+00
    0.400000000000D+02-0.186562500000D+02 0.553165913075D-08 0.122852316963D+01
   -0.102072954178D-05 0.140073923394D-01 0.671669840813D-05 0.515364448929D+04
    0.496800000000D+06-0.281259417534D-06-0.663689712175D+00 0.521540641785D-07
    0.928479887257D+00 0.235812500000D+03 0.107606343283D+01-0.871286331972D-08
    0.138577205266D-09 0.100000000000D+01 0.162600000000D+04 0.000000000000D+00
    0.200000000000D+01 0.000000000000D+00-0.419095158577D-08 0.400000000000D+02
    0.489618000000D+06 0.400000000000D+01 0.000000000000D+00 0.000000000000D+00
 4 11  3 11 18  0  0.0 0.578756444156D-04 0.103455022327D-10 0.000000000000D+00
    0.990000000000D+02 0.846875000000D+01 0.506771109051D-08-0.201018389771D+01
    0.184401869774D-06 0.958724028896D-02 0.870414078236D-05 0.515361074066D+04
    0.496800000000D+06 0.139698386192D-06 0.510186411541D+00-0.521540641785D-07
    0.938608238195D+00 0.195156250000D+03 0.713744653850D+00-0.808819404861D-08
   -0.921466954226D-10 0.100000000000D+01 0.162600000000D+04 0.000000000000D+00
    0.280000000000D+01 0.000000000000D+00-0.605359673500D-08 0.990000000000D+02
    0.489600000000D+06 0.000000000000D+00 0.000000000000D+00 0.000000000000D+00
 5 11  3 11 18  0  0.0-0.127477571368D-03-0.591171556152D-11 0.000000000000D+00
    0.850000000000D+02 0.888750000000D+02 0.468448084172D-08 0.296507639053D+01
    0.457465648651D-05 0.225561554544D-02 0.823661684990D-05 0.515363360023D+04
    0.496800000000D+06-0.428408384323D-07 0.155419025506D+01-0.204890966415D-07
    0.954731549887D+00 0.218250000000D+03 0.285924477125D+00-0.803176312660D-08
   -0.432160858377D-10 0.100000000000D+01 0.162600000000D+04 0.000000000000D+00
    0.200000000000D+01 0.000000000000D+00-0.977888703346D-08 0.850000000000D+02
    0.492420000000D+06 0.000000000000D+00 0.000000000000D+00 0.000000000000D+00
 6 11  3 11 18  0  0.0-0.422820448875D-05-0.131308297568D-09 0.000000000000D+00
    0.700000000000D+01-0.171250000000D+02 0.524093257681D-08-0.297278233785D+01
   -0.812113285065D-06 0.655916333199D-02 0.620260834694D-05 0.515364937782D+04
    0.496800000000D+06-0.391155481338D-07-0.590677413594D+00 0.119209289551D-06
    0.935702306500D+00 0.242531250000D+03-0.847518099148D+00-0.829748891817D-08
    0.223580737258D-09 0.100000000000D+01 0.162600000000D+04 0.000000000000D+00
    0.200000000000D+01 0.000000000000D+00-0.465661287308D-08 0.700000000000D+01
    0.489618000000D+06 0.400000000000D+01 0.000000000000D+00 0.000000000000D+00
 8 11  3 11 18  0  0.0 0.752368941903D-05 0.000000000000D+00 0.000000000000D+00
    0.200000000000D+02-0.606875000000D+02 0.358372070492D-08-0.976032845491D+00
   -0.331178307533D-05 0.114411326358D-01 0.711344182491D-05 0.515361301804D+04
    0.496800000000D+06 0.931322574615D-07-0.255096326906D+01-0.193715095520D-06
    0.995839888774D+00 0.259031250000D+03-0.308376502920D+01-0.770174938020D-08
   -0.621454457501D-10 0.100000000000D+01 0.162600000000D+04 0.000000000000D+00
    0.200000000000D+01 0.000000000000D+00-0.465661287308D-08 0.200000000000D+02
    0.493980000000D+06 0.000000000000D+00 0.000000000000D+00 0.000000000000D+00
 9 11  3 11 18  0  0.0 0.669769942761D-04 0.238742359215D-11 0.000000000000D+00
    0.950000000000D+02-0.595937500000D+02 0.406374069968D-08-0.111428781890D+01
   -0.289082527161D-05 0.170747673838D-01 0.622309744358D-05 0.515367804337D+04
    0.496800000000D+06-0.236555933952D-06-0.265384028683D+01 0.311061739922D-06
    0.983200125889D+00 0.271906250000D+03 0.155724671225D+01-0.815498254490D-08
   -0.164649715464D-09 0.100000000000D+01 0.162600000000D+04 0.000000000000D+00
    0.280000000000D+01 0.000000000000D+00-0.558793544769D-08 0.950000000000D+02
    0.495858000000D+06 0.400000000000D+01 0.000000000000D+00 0.000000000000D+00
